[{"OBJECT_NAME":"JILIN-1 GAOFEN 3A","OBJECT_ID":"2019-032C","EPOCH":"2026-03-09T17:53:24.364896","MEAN_MOTION":15.3027131,"ECCENTRICITY":0.00026181,"INCLINATION":44.9746,"RA_OF_ASC_NODE":183.2861,"ARG_OF_PERICENTER":111.29,"MEAN_ANOMALY":248.8263,"EPHEMERIS_TYPE":0,"CLASSIFICATION_TYPE":"U","NORAD_CAT_ID":44312,"ELEMENT_SET_NO":999,"REV_AT_EPOCH":37259,"BSTAR":0.00055381133,"MEAN_MOTION_DOT":0.00016264,"MEAN_MOTION_DDOT":0},{"OBJECT_NAME":"STARLINK-30456","OBJECT_ID":"2023-148J","EPOCH":"2026-03-09T06:12:30.918816","MEAN_MOTION":15.3019051,"ECCENTRICITY":0.00011488,"INCLINATION":53.1621,"RA_OF_ASC_NODE":26.4758,"ARG_OF_PERICENTER":104.118,"MEAN_ANOMALY":255.9948,"EPHEMERIS_TYPE":0,"CLASSIFICATION_TYPE":"U","NORAD_CAT_ID":57943,"ELEMENT_SET_NO":999,"REV_AT_EPOCH":13835,"BSTAR":4.880448e-6,"MEAN_MOTION_DOT":-2.15e-6,"MEAN_MOTION_DDOT":0}]
